{
  "type": "FeatureCollection",
  "features": [
    {
      "type": "Feature",
      "properties": {
        "norad_id": 41773,
        "name": "SKYSAT-C2",
        "group": "resource",
        "lat": 22.211178433761336,
        "lon": -153.34325947836257,
        "alt_km": 454.9870874144226,
        "timestamp": "2025-12-25T19:00:39.005607+00:00",
        "meta_object_name": "SKYSAT-C2",
        "meta_object_id": "2016-058D",
        "meta_epoch": "2025-12-25T01:08:47.943168",
        "meta_mean_motion": 15.37542437,
        "meta_eccentricity": 0.00027847,
        "meta_inclination": 97.0351,
        "meta_ra_of_asc_node": 23.0533,
        "meta_arg_of_pericenter": 357.0422,
        "meta_mean_anomaly": 3.0807,
        "meta_ephemeris_type": 0,
        "meta_classification_type": "U",
        "meta_norad_cat_id": 41773,
        "meta_element_set_no": 999,
        "meta_rev_at_epoch": 51825,
        "meta_bstar": 0.00032233433,
        "meta_mean_motion_dot": 0.00011801,
        "meta_mean_motion_ddot": 0,
        "tle_line1": "1 41773U 16058D   25359.04777712  .00011801  00000+0  32233-3 0  9997",
        "tle_line2": "2 41773  97.0351  23.0533 0002784 357.0422   3.0807 15.37542437518259"
      },
      "geometry": {
        "type": "Point",
        "coordinates": [
          -153.34325947836257,
          22.211178433761336
        ]
      }
    },
    {
      "type": "Feature",
      "properties": {
        "norad_id": 41774,
        "name": "SKYSAT-C3",
        "group": "resource",
        "lat": -35.5780447724092,
        "lon": 37.92251031708881,
        "alt_km": 439.26991088548857,
        "timestamp": "2025-12-25T19:00:39.005617+00:00",
        "meta_object_name": "SKYSAT-C3",
        "meta_object_id": "2016-058E",
        "meta_epoch": "2025-12-25T00:30:39.324672",
        "meta_mean_motion": 15.44829659,
        "meta_eccentricity": 0.00021115,
        "meta_inclination": 96.9281,
        "meta_ra_of_asc_node": 32.197,
        "meta_arg_of_pericenter": 105.7849,
        "meta_mean_anomaly": 254.3634,
        "meta_ephemeris_type": 0,
        "meta_classification_type": "U",
        "meta_norad_cat_id": 41774,
        "meta_element_set_no": 999,
        "meta_rev_at_epoch": 51915,
        "meta_bstar": 0.00043161699,
        "meta_mean_motion_dot": 0.00020176,
        "meta_mean_motion_ddot": 0,
        "tle_line1": "1 41774U 16058E   25359.02128848  .00020176  00000+0  43162-3 0  9994",
        "tle_line2": "2 41774  96.9281  32.1970 0002111 105.7849 254.3634 15.44829659519152"
      },
      "geometry": {
        "type": "Point",
        "coordinates": [
          37.92251031708881,
          -35.5780447724092
        ]
      }
    },
    {
      "type": "Feature",
      "properties": {
        "norad_id": 41785,
        "name": "ALSAT 1B",
        "group": "resource",
        "lat": 19.63698398522839,
        "lon": 8.221487968154685,
        "alt_km": 649.3848374365643,
        "timestamp": "2025-12-25T19:00:39.005639+00:00",
        "meta_object_name": "ALSAT 1B",
        "meta_object_id": "2016-059C",
        "meta_epoch": "2025-12-25T07:30:06.689088",
        "meta_mean_motion": 14.72087265,
        "meta_eccentricity": 0.00107379,
        "meta_inclination": 97.7808,
        "meta_ra_of_asc_node": 10.5591,
        "meta_arg_of_pericenter": 68.2794,
        "meta_mean_anomaly": 291.9556,
        "meta_ephemeris_type": 0,
        "meta_classification_type": "U",
        "meta_norad_cat_id": 41785,
        "meta_element_set_no": 999,
        "meta_rev_at_epoch": 49499,
        "meta_bstar": 3.9228179e-05,
        "meta_mean_motion_dot": 2e-06,
        "meta_mean_motion_ddot": 0,
        "tle_line1": "1 41785U 16059C   25359.31257742  .00000200  00000+0  39228-4 0  9990",
        "tle_line2": "2 41785  97.7808  10.5591 0010737  68.2794 291.9556 14.72087265494995"
      },
      "geometry": {
        "type": "Point",
        "coordinates": [
          8.221487968154685,
          19.63698398522839
        ]
      }
    },
    {
      "type": "Feature",
      "properties": {
        "norad_id": 41787,
        "name": "PATHFINDER 1",
        "group": "resource",
        "lat": -54.99378432422213,
        "lon": 170.65281976460642,
        "alt_km": 696.8058273045881,
        "timestamp": "2025-12-25T19:00:39.005652+00:00",
        "meta_object_name": "PATHFINDER 1",
        "meta_object_id": "2016-059E",
        "meta_epoch": "2025-12-25T06:29:03.730848",
        "meta_mean_motion": 14.67342425,
        "meta_eccentricity": 0.00295936,
        "meta_inclination": 97.8139,
        "meta_ra_of_asc_node": 1.4623,
        "meta_arg_of_pericenter": 42.9383,
        "meta_mean_anomaly": 317.4125,
        "meta_ephemeris_type": 0,
        "meta_classification_type": "U",
        "meta_norad_cat_id": 41787,
        "meta_element_set_no": 999,
        "meta_rev_at_epoch": 49420,
        "meta_bstar": 0.00015313818,
        "meta_mean_motion_dot": 8.24e-06,
        "meta_mean_motion_ddot": 0,
        "tle_line1": "1 41787U 16059E   25359.27018207  .00000824  00000+0  15314-3 0  9999",
        "tle_line2": "2 41787  97.8139   1.4623 0029593  42.9383 317.4125 14.67342425494209"
      },
      "geometry": {
        "type": "Point",
        "coordinates": [
          170.65281976460642,
          -54.99378432422213
        ]
      }
    },
    {
      "type": "Feature",
      "properties": {
        "norad_id": 41790,
        "name": "SCATSAT 1",
        "group": "resource",
        "lat": 53.02322124363972,
        "lon": 45.65935547000489,
        "alt_km": 594.3107230149271,
        "timestamp": "2025-12-25T19:00:39.005663+00:00",
        "meta_object_name": "SCATSAT 1",
        "meta_object_id": "2016-059H",
        "meta_epoch": "2025-12-25T02:31:56.912448",
        "meta_mean_motion": 14.78975153,
        "meta_eccentricity": 0.00564641,
        "meta_inclination": 98.1447,
        "meta_ra_of_asc_node": 55.9294,
        "meta_arg_of_pericenter": 89.0623,
        "meta_mean_anomaly": 271.7057,
        "meta_ephemeris_type": 0,
        "meta_classification_type": "U",
        "meta_norad_cat_id": 41790,
        "meta_element_set_no": 999,
        "meta_rev_at_epoch": 7585,
        "meta_bstar": 0.00020344373,
        "meta_mean_motion_dot": 1.486e-05,
        "meta_mean_motion_ddot": 0,
        "tle_line1": "1 41790U 16059H   25359.10551982  .00001486  00000+0  20344-3 0  9991",
        "tle_line2": "2 41790  98.1447  55.9294 0056464  89.0623 271.7057 14.78975153 75857"
      },
      "geometry": {
        "type": "Point",
        "coordinates": [
          45.65935547000489,
          53.02322124363972
        ]
      }
    },
    {
      "type": "Feature",
      "properties": {
        "norad_id": 41875,
        "name": "GOKTURK 1A",
        "group": "resource",
        "lat": 77.07483943971006,
        "lon": 110.58279787327828,
        "alt_km": 676.0606280093416,
        "timestamp": "2025-12-25T19:00:39.005674+00:00",
        "meta_object_name": "GOKTURK 1A",
        "meta_object_id": "2016-073A",
        "meta_epoch": "2025-12-25T07:03:48.676032",
        "meta_mean_motion": 14.62794525,
        "meta_eccentricity": 0.0001276,
        "meta_inclination": 98.1426,
        "meta_ra_of_asc_node": 251.4922,
        "meta_arg_of_pericenter": 80.8661,
        "meta_mean_anomaly": 279.2685,
        "meta_ephemeris_type": 0,
        "meta_classification_type": "U",
        "meta_norad_cat_id": 41875,
        "meta_element_set_no": 999,
        "meta_rev_at_epoch": 48340,
        "meta_bstar": 0.0001671439,
        "meta_mean_motion_dot": 8.06e-06,
        "meta_mean_motion_ddot": 0,
        "tle_line1": "1 41875U 16073A   25359.29431338  .00000806  00000+0  16714-3 0  9994",
        "tle_line2": "2 41875  98.1426 251.4922 0001276  80.8661 279.2685 14.62794525483400"
      },
      "geometry": {
        "type": "Point",
        "coordinates": [
          110.58279787327828,
          77.07483943971006
        ]
      }
    },
    {
      "type": "Feature",
      "properties": {
        "norad_id": 41877,
        "name": "RESOURCESAT-2A",
        "group": "resource",
        "lat": 16.727914738951842,
        "lon": 66.9108466406459,
        "alt_km": 821.6113527881762,
        "timestamp": "2025-12-25T19:00:39.005685+00:00",
        "meta_object_name": "RESOURCESAT-2A",
        "meta_object_id": "2016-074A",
        "meta_epoch": "2025-12-25T07:06:25.598304",
        "meta_mean_motion": 14.21605075,
        "meta_eccentricity": 0.00016311,
        "meta_inclination": 98.7738,
        "meta_ra_of_asc_node": 69.0783,
        "meta_arg_of_pericenter": 200.0359,
        "meta_mean_anomaly": 160.0754,
        "meta_ephemeris_type": 0,
        "meta_classification_type": "U",
        "meta_norad_cat_id": 41877,
        "meta_element_set_no": 999,
        "meta_rev_at_epoch": 46959,
        "meta_bstar": 6.317801e-05,
        "meta_mean_motion_dot": 9.4e-07,
        "meta_mean_motion_ddot": 0,
        "tle_line1": "1 41877U 16074A   25359.29612961  .00000094  00000+0  63178-4 0  9996",
        "tle_line2": "2 41877  98.7738  69.0783 0001631 200.0359 160.0754 14.21605075469591"
      },
      "geometry": {
        "type": "Point",
        "coordinates": [
          66.9108466406459,
          16.727914738951842
        ]
      }
    }
  ]
}